<?xml version="1.0" encoding="UTF-8"?>
<ndm xmlns:xsi="http://www.w3.org/2001/XMLSchema-instance" xsi:noNamespaceSchemaLocation="https://sanaregistry.org/r/ndmxml_unqualified/ndmxml-2.0.0-master-2.0.xsd">
<omm id="CCSDS_OMM_VERS" version="2.0">
<header><CREATION_DATE/><ORIGINATOR/></header><body><segment><metadata><OBJECT_NAME>STARLINK-G6-19 STACK</OBJECT_NAME><OBJECT_ID>2023-151A</OBJECT_ID><CENTER_NAME>EARTH</CENTER_NAME><REF_FRAME>TEME</REF_FRAME><TIME_SYSTEM>UTC</TIME_SYSTEM><MEAN_ELEMENT_THEORY>SGP4</MEAN_ELEMENT_THEORY></metadata><data><meanElements><EPOCH>2023-09-30T03:05:19.819968</EPOCH><MEAN_MOTION>15.94778254</MEAN_MOTION><ECCENTRICITY>.0006939</ECCENTRICITY><INCLINATION>42.9951</INCLINATION><RA_OF_ASC_NODE>175.6164</RA_OF_ASC_NODE><ARG_OF_PERICENTER>260.8459</ARG_OF_PERICENTER><MEAN_ANOMALY>117.3234</MEAN_ANOMALY></meanElements><tleParameters><EPHEMERIS_TYPE>0</EPHEMERIS_TYPE><CLASSIFICATION_TYPE>C</CLASSIFICATION_TYPE><NORAD_CAT_ID>72000</NORAD_CAT_ID><ELEMENT_SET_NO>0</ELEMENT_SET_NO><REV_AT_EPOCH>1</REV_AT_EPOCH><BSTAR>.76624E-4</BSTAR><MEAN_MOTION_DOT>.30802E-3</MEAN_MOTION_DOT><MEAN_MOTION_DDOT>0</MEAN_MOTION_DDOT></tleParameters></data></segment></body></omm>
<omm id="CCSDS_OMM_VERS" version="2.0">
<header><CREATION_DATE/><ORIGINATOR/></header><body><segment><metadata><OBJECT_NAME>STARLINK-G6-19 SINGLE</OBJECT_NAME><OBJECT_ID>2023-151B</OBJECT_ID><CENTER_NAME>EARTH</CENTER_NAME><REF_FRAME>TEME</REF_FRAME><TIME_SYSTEM>UTC</TIME_SYSTEM><MEAN_ELEMENT_THEORY>SGP4</MEAN_ELEMENT_THEORY></metadata><data><meanElements><EPOCH>2023-09-30T03:05:19.819968</EPOCH><MEAN_MOTION>15.94778275</MEAN_MOTION><ECCENTRICITY>.0007136</ECCENTRICITY><INCLINATION>42.9950</INCLINATION><RA_OF_ASC_NODE>175.6164</RA_OF_ASC_NODE><ARG_OF_PERICENTER>259.9252</ARG_OF_PERICENTER><MEAN_ANOMALY>118.2446</MEAN_ANOMALY></meanElements><tleParameters><EPHEMERIS_TYPE>0</EPHEMERIS_TYPE><CLASSIFICATION_TYPE>C</CLASSIFICATION_TYPE><NORAD_CAT_ID>72001</NORAD_CAT_ID><ELEMENT_SET_NO>0</ELEMENT_SET_NO><REV_AT_EPOCH>1</REV_AT_EPOCH><BSTAR>.1966E-2</BSTAR><MEAN_MOTION_DOT>.801269E-2</MEAN_MOTION_DOT><MEAN_MOTION_DDOT>0</MEAN_MOTION_DDOT></tleParameters></data></segment></body></omm>
</ndm>
